ORBCOMM FM115           
1 41186U 15081H   24236.55120603  .00002394  00000+0  51736-3 0  9996
2 41186  46.9997  13.7971 0000939 215.3229 144.7596 14.61080928464222
ORBCOMM FM108           
1 41187U 15081J   24236.55391441  .00002144  00000+0  50993-3 0  9994
2 41187  47.0041  71.4291 0001772  12.6465 347.4465 14.56939117463376
ORBCOMM FM117           
1 41188U 15081K   24236.58854390  .00002135  00000+0  50804-3 0  9996
2 41188  47.0003  70.1257 0002346  31.2593 328.8431 14.56925019463428
ORBCOMM FM116           
1 41189U 15081L   24236.50889061  .00002760  00000+0  64723-3 0  9991
2 41189  47.0008 160.3262 0001667 126.5124 233.5915 14.56822251462225
